[
    {
        "Altitude(m)": 714804.804981158,
        "Argument of Periapsis(deg)": 0.010251109067964361,
        "Eccentricity": 0.0,
        "Inclination(deg)": 45.0,
        "Latitude(deg)": -37.7013440747232,
        "Longitude(deg)": 4.550940095234,
        "Mean Anomaly(deg)": -120.52920501726715,
        "RAAN(deg)": 234.9903232526876,
        "Satellite Name": "Constellation 1 1048",
        "Satellite Number": 1048,
        "Semi-Major Axis(m)": 7083131.272910544,
        "Time(s)": 171
    },
    {
        "Altitude(m)": 714816.0982003147,
        "Argument of Periapsis(deg)": 0.010311057074209765,
        "Eccentricity": 0.0,
        "Inclination(deg)": 45.0,
        "Latitude(deg)": -37.72879687523769,
        "Longitude(deg)": 4.614985582988231,
        "Mean Anomaly(deg)": -120.4685038770174,
        "RAAN(deg)": 234.99026666352205,
        "Satellite Name": "Constellation 1 1048",
        "Satellite Number": 1048,
        "Semi-Major Axis(m)": 7083131.272910544,
        "Time(s)": 172
    },
    {
        "Altitude(m)": 714827.3762483584,
        "Argument of Periapsis(deg)": 0.010371005080455171,
        "Eccentricity": 0.0,
        "Inclination(deg)": 45.0,
        "Latitude(deg)": -37.75621008448885,
        "Longitude(deg)": 4.67908122695193,
        "Mean Anomaly(deg)": -120.40780273676747,
        "RAAN(deg)": 234.9902100743565,
        "Satellite Name": "Constellation 1 1048",
        "Satellite Number": 1048,
        "Semi-Major Axis(m)": 7083131.272910544,
        "Time(s)": 173
    },
    {
        "Altitude(m)": 714838.639084395,
        "Argument of Periapsis(deg)": 0.010430953086700577,
        "Eccentricity": 0.0,
        "Inclination(deg)": 45.0,
        "Latitude(deg)": -37.783583635281616,
        "Longitude(deg)": 4.7432270413910365,
        "Mean Anomaly(deg)": -120.34710159651745,
        "RAAN(deg)": 234.9901534851909,
        "Satellite Name": "Constellation 1 1048",
        "Satellite Number": 1048,
        "Semi-Major Axis(m)": 7083131.272910544,
        "Time(s)": 174
    },
    {
        "Altitude(m)": 714849.8866675976,
        "Argument of Periapsis(deg)": 0.010490901092945983,
        "Eccentricity": 0.0,
        "Inclination(deg)": 45.0,
        "Latitude(deg)": -37.81091746038419,
        "Longitude(deg)": 4.807423040246108,
        "Mean Anomaly(deg)": -120.28640045626771,
        "RAAN(deg)": 234.9900968960253,
        "Satellite Name": "Constellation 1 1048",
        "Satellite Number": 1048,
        "Semi-Major Axis(m)": 7083131.272910544,
        "Time(s)": 175
    },
    {
        "Altitude(m)": 714861.1189571789,
        "Argument of Periapsis(deg)": 0.010550849099191389,
        "Eccentricity": 0.0,
        "Inclination(deg)": 45.0,
        "Latitude(deg)": -37.83821149252868,
        "Longitude(deg)": 4.8716692371313215,
        "Mean Anomaly(deg)": -120.22569931601774,
        "RAAN(deg)": 234.99004030685975,
        "Satellite Name": "Constellation 1 1048",
        "Satellite Number": 1048,
        "Semi-Major Axis(m)": 7083131.272910544,
        "Time(s)": 176
    },
    {
        "Altitude(m)": 714872.335912413,
        "Argument of Periapsis(deg)": 0.010610797105436795,
        "Eccentricity": 0.0,
        "Inclination(deg)": 45.0,
        "Latitude(deg)": -37.86546566441098,
        "Longitude(deg)": 4.935965645331729,
        "Mean Anomaly(deg)": -120.1649981757678,
        "RAAN(deg)": 234.9899837176942,
        "Satellite Name": "Constellation 1 1048",
        "Satellite Number": 1048,
        "Semi-Major Axis(m)": 7083131.272910544,
        "Time(s)": 177
    },
    {
        "Altitude(m)": 714883.5374926178,
        "Argument of Periapsis(deg)": 0.0106707451116822,
        "Eccentricity": 0.0,
        "Inclination(deg)": 45.0,
        "Latitude(deg)": -37.892679908691804,
        "Longitude(deg)": 5.00031210970612,
        "Mean Anomaly(deg)": -120.10429703551783,
        "RAAN(deg)": 234.98992712852865,
        "Satellite Name": "Constellation 1 1048",
        "Satellite Number": 1048,
        "Semi-Major Axis(m)": 7083131.272910544,
        "Time(s)": 178
    },
    {
        "Altitude(m)": 714894.7236571657,
        "Argument of Periapsis(deg)": 0.010730693117927606,
        "Eccentricity": 0.0,
        "Inclination(deg)": 45.0,
        "Latitude(deg)": -37.91985415799583,
        "Longitude(deg)": 5.064708979072892,
        "Mean Anomaly(deg)": -120.04359589526807,
        "RAAN(deg)": 234.989870539363,
        "Satellite Name": "Constellation 1 1048",
        "Satellite Number": 1048,
        "Semi-Major Axis(m)": 7083131.272910544,
        "Time(s)": 179
    },
    {
        "Altitude(m)": 714905.8943654842,
        "Argument of Periapsis(deg)": 0.01079064112417301,
        "Eccentricity": 0.0,
        "Inclination(deg)": 45.0,
        "Latitude(deg)": -37.94698834491386,
        "Longitude(deg)": 5.1291560976270345,
        "Mean Anomaly(deg)": -119.9828947550181,
        "RAAN(deg)": 234.98981395019746,
        "Satellite Name": "Constellation 1 1048",
        "Satellite Number": 1048,
        "Semi-Major Axis(m)": 7083131.272910544,
        "Time(s)": 180
    },
    {
        "Altitude(m)": 714917.0495770496,
        "Argument of Periapsis(deg)": 0.010850589130418416,
        "Eccentricity": 0.0,
        "Inclination(deg)": 45.0,
        "Latitude(deg)": -37.974082402002,
        "Longitude(deg)": 5.193653477326299,
        "Mean Anomaly(deg)": -119.92219361476826,
        "RAAN(deg)": 234.9897573610319,
        "Satellite Name": "Constellation 1 1048",
        "Satellite Number": 1048,
        "Semi-Major Axis(m)": 7083131.272910544,
        "Time(s)": 181
    },
    {
        "Altitude(m)": 714928.1892513945,
        "Argument of Periapsis(deg)": 0.01091053713666382,
        "Eccentricity": 0.0,
        "Inclination(deg)": 45.0,
        "Latitude(deg)": -38.00113626178244,
        "Longitude(deg)": 5.258201129792922,
        "Mean Anomaly(deg)": -119.86149247451841,
        "RAAN(deg)": 234.98970077186635,
        "Satellite Name": "Constellation 1 1048",
        "Satellite Number": 1048,
        "Semi-Major Axis(m)": 7083131.272910544,
        "Time(s)": 182
    },
    {
        "Altitude(m)": 714939.3133480989,
        "Argument of Periapsis(deg)": 0.010970485142909228,
        "Eccentricity": 0.0,
        "Inclination(deg)": 45.0,
        "Latitude(deg)": -38.028149856743866,
        "Longitude(deg)": 5.322799066312614,
        "Mean Anomaly(deg)": -119.80079133426844,
        "RAAN(deg)": 234.9896441827008,
        "Satellite Name": "Constellation 1 1048",
        "Satellite Number": 1048,
        "Semi-Major Axis(m)": 7083131.272910544,
        "Time(s)": 183
    },
    {
        "Altitude(m)": 714950.4218268057,
        "Argument of Periapsis(deg)": 0.011030433149154634,
        "Eccentricity": 0.0,
        "Inclination(deg)": 45.0,
        "Latitude(deg)": -38.05512311934166,
        "Longitude(deg)": 5.387447297832191,
        "Mean Anomaly(deg)": -119.74009019401855,
        "RAAN(deg)": 234.98958759353516,
        "Satellite Name": "Constellation 1 1048",
        "Satellite Number": 1048,
        "Semi-Major Axis(m)": 7083131.272910544,
        "Time(s)": 184
    },
    {
        "Altitude(m)": 714961.5146472028,
        "Argument of Periapsis(deg)": 0.01109038115540004,
        "Eccentricity": 0.0,
        "Inclination(deg)": 45.0,
        "Latitude(deg)": -38.08205598199893,
        "Longitude(deg)": 5.452145666861977,
        "Mean Anomaly(deg)": -119.67938905376869,
        "RAAN(deg)": 234.9895310043696,
        "Satellite Name": "Constellation 1 1048",
        "Satellite Number": 1048,
        "Semi-Major Axis(m)": 7083131.272910544,
        "Time(s)": 185
    },
    {
        "Altitude(m)": 714972.5917690275,
        "Argument of Periapsis(deg)": 0.011150329161645444,
        "Eccentricity": 0.0,
        "Inclination(deg)": 45.0,
        "Latitude(deg)": -38.10894837710555,
        "Longitude(deg)": 5.516894519862466,
        "Mean Anomaly(deg)": -119.61868791351876,
        "RAAN(deg)": 234.98947441520406,
        "Satellite Name": "Constellation 1 1048",
        "Satellite Number": 1048,
        "Semi-Major Axis(m)": 7083131.272910544,
        "Time(s)": 186
    },
    {
        "Altitude(m)": 714983.6531520796,
        "Argument of Periapsis(deg)": 0.01121027716789085,
        "Eccentricity": 0.0,
        "Inclination(deg)": 45.0,
        "Latitude(deg)": -38.13580023702035,
        "Longitude(deg)": 5.581693698660026,
        "Mean Anomaly(deg)": -119.55798677326878,
        "RAAN(deg)": 234.9894178260385,
        "Satellite Name": "Constellation 1 1048",
        "Satellite Number": 1048,
        "Semi-Major Axis(m)": 7083131.272910544,
        "Time(s)": 187
    },
    {
        "Altitude(m)": 714994.6987562166,
        "Argument of Periapsis(deg)": 0.011270225174136258,
        "Eccentricity": 0.0,
        "Inclination(deg)": 45.0,
        "Latitude(deg)": -38.16261149407039,
        "Longitude(deg)": 5.646543212834069,
        "Mean Anomaly(deg)": -119.49728563301895,
        "RAAN(deg)": 234.98936123687295,
        "Satellite Name": "Constellation 1 1048",
        "Satellite Number": 1048,
        "Semi-Major Axis(m)": 7083131.272910544,
        "Time(s)": 188
    },
    {
        "Altitude(m)": 715005.7285413306,
        "Argument of Periapsis(deg)": 0.011330173180381662,
        "Eccentricity": 0.0,
        "Inclination(deg)": 45.0,
        "Latitude(deg)": -38.189382080551695,
        "Longitude(deg)": 5.711443071618623,
        "Mean Anomaly(deg)": -119.4365844927691,
        "RAAN(deg)": 234.9893046477074,
        "Satellite Name": "Constellation 1 1048",
        "Satellite Number": 1048,
        "Semi-Major Axis(m)": 7083131.272910544,
        "Time(s)": 189
    }
]